{
    "links": {
        "self": "http://www.neowsapp.com/rest/v1/neo/3522160?api_key=iIulBulltgU6a56xZRHN4H3l9WmuAYTsLGpBGhQ2"
    },
    "id": "3522160",
    "neo_reference_id": "3522160",
    "name": "(2010 JH110)",
    "designation": "2010 JH110",
    "nasa_jpl_url": "http://ssd.jpl.nasa.gov/sbdb.cgi?sstr=3522160",
    "absolute_magnitude_h": 26.3,
    "estimated_diameter": {
        "kilometers": {
            "estimated_diameter_min": 0.0146067964,
            "estimated_diameter_max": 0.0326617897
        },
        "meters": {
            "estimated_diameter_min": 14.6067964271,
            "estimated_diameter_max": 32.6617897446
        },
        "miles": {
            "estimated_diameter_min": 0.0090762397,
            "estimated_diameter_max": 0.020295089
        },
        "feet": {
            "estimated_diameter_min": 47.92256199,
            "estimated_diameter_max": 107.1581062656
        }
    },
    "is_potentially_hazardous_asteroid": false,
    "close_approach_data": [
        {
            "close_approach_date": "2010-05-16",
            "close_approach_date_full": "2010-May-16 02:24",
            "epoch_date_close_approach": 1273976640000,
            "relative_velocity": {
                "kilometers_per_second": "7.2808940406",
                "kilometers_per_hour": "26211.2185459907",
                "miles_per_hour": "16286.631879313"
            },
            "miss_distance": {
                "astronomical": "0.0197759639",
                "lunar": "7.6928499571",
                "kilometers": "2958442.076636893",
                "miles": "1838290.6637514034"
            },
            "orbiting_body": "Earth"
        }
    ],
    "orbital_data": {
        "orbit_id": "10",
        "orbit_determination_date": "2017-04-06 08:57:29",
        "first_observation_date": "2010-05-15",
        "last_observation_date": "2010-06-18",
        "data_arc_in_days": 34,
        "observations_used": 60,
        "orbit_uncertainty": "7",
        "minimum_orbit_intersection": ".0035462",
        "jupiter_tisserand_invariant": "3.332",
        "epoch_osculation": "2459000.5",
        "eccentricity": ".5659191078771302",
        "semi_major_axis": "2.336666583599923",
        "inclination": ".7440842059666803",
        "ascending_node_longitude": "72.43545183389115",
        "orbital_period": "1304.648588021261",
        "perihelion_distance": "1.014302315202753",
        "perihelion_argument": "165.4780468867363",
        "aphelion_distance": "3.659030851997092",
        "perihelion_time": "2459256.507013901000",
        "mean_anomaly": "289.3583530074245",
        "mean_motion": ".2759363734459761",
        "equinox": "J2000",
        "orbit_class": {
            "orbit_class_type": "APO",
            "orbit_class_description": "Near-Earth asteroid orbits which cross the Earth’s orbit similar to that of 1862 Apollo",
            "orbit_class_range": "a (semi-major axis) > 1.0 AU; q (perihelion) < 1.017 AU"
        }
    },
    "is_sentry_object": false
}